{
  "links" : {
    "next" : "https://api.nasa.gov/neo/rest/v1/feed?start_date=2006-11-09&end_date=2006-11-09&detailed=true&api_key=t0TVs3DtDT2H8Oy2Zy8m2eVrNsAVKAexjcZXUckd",
    "prev" : "https://api.nasa.gov/neo/rest/v1/feed?start_date=2006-11-07&end_date=2006-11-07&detailed=true&api_key=t0TVs3DtDT2H8Oy2Zy8m2eVrNsAVKAexjcZXUckd",
    "self" : "https://api.nasa.gov/neo/rest/v1/feed?start_date=2006-11-08&end_date=2006-11-08&detailed=true&api_key=t0TVs3DtDT2H8Oy2Zy8m2eVrNsAVKAexjcZXUckd"
  },
  "element_count" : 5,
  "near_earth_objects" : {
    "2006-11-08" : [ {
      "links" : {
        "self" : "https://api.nasa.gov/neo/rest/v1/neo/3401433?api_key=t0TVs3DtDT2H8Oy2Zy8m2eVrNsAVKAexjcZXUckd"
      },
      "neo_reference_id" : "3401433",
      "name" : "(2008 CT1)",
      "nasa_jpl_url" : "http://ssd.jpl.nasa.gov/sbdb.cgi?sstr=3401433",
      "absolute_magnitude_h" : 27.7,
      "estimated_diameter" : {
        "kilometers" : {
          "estimated_diameter_min" : 0.0076657557,
          "estimated_diameter_max" : 0.0171411509
        },
        "meters" : {
          "estimated_diameter_min" : 7.6657557353,
          "estimated_diameter_max" : 17.1411509231
        },
        "miles" : {
          "estimated_diameter_min" : 0.0047632783,
          "estimated_diameter_max" : 0.0106510141
        },
        "feet" : {
          "estimated_diameter_min" : 25.1501180466,
          "estimated_diameter_max" : 56.2373735944
        }
      },
      "is_potentially_hazardous_asteroid" : false,
      "close_approach_data" : [ {
        "close_approach_date" : "2006-11-08",
        "epoch_date_close_approach" : 1162972800000,
        "relative_velocity" : {
          "kilometers_per_second" : "9.8581541404",
          "kilometers_per_hour" : "35489.3549055291",
          "miles_per_hour" : "22051.7049967161"
        },
        "miss_distance" : {
          "astronomical" : "0.2011695296",
          "lunar" : "78.2549514771",
          "kilometers" : "30094534",
          "miles" : "18699876"
        },
        "orbiting_body" : "Earth"
      } ],
      "orbital_data" : {
        "orbit_id" : "6",
        "orbit_determination_date" : "2017-04-06 09:04:31",
        "orbit_uncertainty" : "8",
        "minimum_orbit_intersection" : ".000254408",
        "jupiter_tisserand_invariant" : "6.578",
        "epoch_osculation" : "2454500.5",
        "eccentricity" : ".4564429381213757",
        "semi_major_axis" : ".8907954750712905",
        "inclination" : ".3712793158155128",
        "ascending_node_longitude" : "138.0938801281346",
        "orbital_period" : "307.089827401355",
        "perihelion_distance" : ".484198171164524",
        "perihelion_argument" : "126.2215183472257",
        "aphelion_distance" : "1.297392778978057",
        "perihelion_time" : "2454568.456528356174",
        "mean_anomaly" : "280.3348726486839",
        "mean_motion" : "1.172295425890137",
        "equinox" : "J2000"
      }
    }, {
      "links" : {
        "self" : "https://api.nasa.gov/neo/rest/v1/neo/3672907?api_key=t0TVs3DtDT2H8Oy2Zy8m2eVrNsAVKAexjcZXUckd"
      },
      "neo_reference_id" : "3672907",
      "name" : "(2014 KV76)",
      "nasa_jpl_url" : "http://ssd.jpl.nasa.gov/sbdb.cgi?sstr=3672907",
      "absolute_magnitude_h" : 21.0,
      "estimated_diameter" : {
        "kilometers" : {
          "estimated_diameter_min" : 0.1677084622,
          "estimated_diameter_max" : 0.3750075218
        },
        "meters" : {
          "estimated_diameter_min" : 167.7084621628,
          "estimated_diameter_max" : 375.0075217981
        },
        "miles" : {
          "estimated_diameter_min" : 0.1042091748,
          "estimated_diameter_max" : 0.2330187988
        },
        "feet" : {
          "estimated_diameter_min" : 550.2246310023,
          "estimated_diameter_max" : 1230.3396778159
        }
      },
      "is_potentially_hazardous_asteroid" : false,
      "close_approach_data" : [ {
        "close_approach_date" : "2006-11-08",
        "epoch_date_close_approach" : 1162972800000,
        "relative_velocity" : {
          "kilometers_per_second" : "18.4255096933",
          "kilometers_per_hour" : "66331.8348958796",
          "miles_per_hour" : "41216.0226329425"
        },
        "miss_distance" : {
          "astronomical" : "0.4409730191",
          "lunar" : "171.5384979248",
          "kilometers" : "65968624",
          "miles" : "40991004"
        },
        "orbiting_body" : "Earth"
      } ],
      "orbital_data" : {
        "orbit_id" : "12",
        "orbit_determination_date" : "2017-04-06 08:40:17",
        "orbit_uncertainty" : "3",
        "minimum_orbit_intersection" : ".0607186",
        "jupiter_tisserand_invariant" : "6.869",
        "epoch_osculation" : "2458000.5",
        "eccentricity" : ".3582811924420946",
        "semi_major_axis" : ".8482991564735446",
        "inclination" : "12.75020072424815",
        "ascending_node_longitude" : "232.8171874235522",
        "orbital_period" : "285.3789788338696",
        "perihelion_distance" : ".5443695231445801",
        "perihelion_argument" : "157.7599795945442",
        "aphelion_distance" : "1.152228789802509",
        "perihelion_time" : "2458036.743875890416",
        "mean_anomaly" : "314.279059467287",
        "mean_motion" : "1.261480440749528",
        "equinox" : "J2000"
      }
    } ]
  }
}